NORAD_CAT_ID,OBJECT_NAME,OBJECT_TYPE,EPOCH,MEAN_MOTION,ECCENTRICITY,INCLINATION,RA_OF_ASC_NODE,ARG_OF_PERICENTER,MEAN_ANOMALY,BSTAR,MEAN_MOTION_DOT,MEAN_MOTION_DDOT,TLE_LINE0,TLE_LINE1,TLE_LINE2,SEMIMAJOR_AXIS,PERIOD,APOGEE,PERIGEE,DECAYED
52628.0,STARLINK-4001,PAYLOAD,2024-04-03 16:54:35,15.08863495,0.0001244,53.2154,208.9203,82.8685,277.2448,0.0006121,9.473e-05,0.0,0 STARLINK-4001,1 52628U 22052AG  24094.70457850  .00009473  00000-0  61210-3 0  9995,2 52628  53.2154 208.9203 0001244  82.8685 277.2448 15.08863495104353,6917.809,95.436,540.534,538.813,0.0
52628.0,STARLINK-4001,PAYLOAD,2024-04-04 13:34:36,15.08841454,0.0001298,53.2152,205.0561,92.1353,267.9787,4.5775e-05,4.41e-06,0.0,0 STARLINK-4001,1 52628U 22052AG  24095.56570299  .00000441  00000-0  45775-4 0  9998,2 52628  53.2152 205.0561 0001298  92.1353 267.9787 15.08841454104860,6917.876,95.437,540.639,538.843,0.0
52628.0,STARLINK-4001,PAYLOAD,2024-04-05 13:25:23,15.08849312,9.55e-05,53.2166,200.5941,99.9523,260.1577,0.000312,4.682e-05,0.0,0 STARLINK-4001,1 52628U 22052AG  24096.55930308  .00004682  00000-0  31200-3 0  9997,2 52628  53.2166 200.5941 0000955  99.9523 260.1577 15.08849312104638,6917.852,95.437,540.378,539.056,0.0
52628.0,STARLINK-4001,PAYLOAD,2024-04-05 16:36:09,15.08854133,0.0001178,53.2154,199.9984,99.2804,260.8322,0.00051684,7.95e-05,0.0,0 STARLINK-4001,1 52628U 22052AG  24096.69178195  .00007950  00000-0  51684-3 0  9999,2 52628  53.2154 199.9984 0001178  99.2804 260.8322 15.08854133105033,6917.837,95.437,540.517,538.887,0.0
52628.0,STARLINK-4001,PAYLOAD,2024-04-06 13:16:10,15.08855119,0.0002537,53.2177,196.1324,95.9063,264.2219,0.00044675,6.832e-05,0.0,0 STARLINK-4001,1 52628U 22052AG  24097.55290379  .00006832  00000-0  44675-3 0  9994,2 52628  53.2177 196.1324 0002537  95.9063 264.2219 15.08855119105167,6917.834,95.437,541.454,537.944,0.0
52628.0,STARLINK-4001,PAYLOAD,2024-04-07 09:56:12,15.08832719,0.000109,53.2178,192.2686,81.0379,279.0736,0.00017731,2.535e-05,0.0,0 STARLINK-4001,1 52628U 22052AG  24098.41403179  .00002535  00000-0  17731-3 0  9993,2 52628  53.2178 192.2686 0001090  81.0379 279.0736 15.08832719105298,6917.903,95.438,540.522,539.014,0.0
52628.0,STARLINK-4001,PAYLOAD,2024-04-07 13:06:58,15.08826033,0.0001303,53.2167,191.6706,86.4986,273.6155,-8.7498e-05,-1.68e-05,0.0,0 STARLINK-4001,1 52628U 22052AG  24098.54651389 -.00001680  00000-0 -87498-4 0  9995,2 52628  53.2167 191.6706 0001303  86.4986 273.6155 15.08826033104939,6917.923,95.438,540.689,538.887,0.0
52628.0,STARLINK-4001,PAYLOAD,2024-04-07 22:39:17,15.08833287,0.0001436,53.2169,189.8874,94.2643,265.8513,1.5432e-05,-4.2e-07,0.0,0 STARLINK-4001,1 52628U 22052AG  24098.94395409 -.00000042  00000-0  15432-4 0  9996,2 52628  53.2169 189.8874 0001436  94.2643 265.8513 15.08833287104996,6917.901,95.438,540.759,538.772,0.0
52628.0,STARLINK-4001,PAYLOAD,2024-04-08 12:57:45,15.0884431,0.0001469,53.2175,187.214,97.9796,262.1363,0.00044802,6.85e-05,0.0,0 STARLINK-4001,1 52628U 22052AG  24099.54011507  .00006850  00000-0  44802-3 0  9991,2 52628  53.2175 187.2140 0001469  97.9796 262.1363 15.08844310105461,6917.867,95.437,540.748,538.716,0.0
52628.0,STARLINK-4001,PAYLOAD,2024-04-08 22:30:04,15.08856954,0.0001534,53.2184,185.4298,97.9109,262.2058,0.00067518,0.00010479,0.0,0 STARLINK-4001,1 52628U 22052AG  24099.93755108  .00010479  00000-0  67518-3 0  9997,2 52628  53.2184 185.4298 0001534  97.9109 262.2058 15.08856954105140,6917.829,95.436,540.755,538.632,0.0
52628.0,STARLINK-4001,PAYLOAD,2024-04-09 12:48:32,15.0884441,0.000148,53.2169,182.7528,98.8616,261.2543,0.00020591,2.991e-05,0.0,0 STARLINK-4001,1 52628U 22052AG  24100.53371480  .00002991  00000-0  20591-3 0  9993,2 52628  53.2169 182.7528 0001480  98.8616 261.2543 15.08844410105616,6917.867,95.437,540.756,538.708,0.0
52628.0,STARLINK-4001,PAYLOAD,2024-04-09 22:20:51,15.0885166,0.0001644,53.2167,180.9701,94.1989,265.9191,0.00046863,7.18e-05,0.0,0 STARLINK-4001,1 52628U 22052AG  24100.93115352  .00007180  00000-0  46863-3 0  9996,2 52628  53.2167 180.9701 0001644  94.1989 265.9191 15.08851660105290,6917.845,95.437,540.847,538.572,0.0
52628.0,STARLINK-4001,PAYLOAD,2024-04-10 09:28:33,15.0884641,0.0001342,53.2164,178.8869,95.6178,264.4967,0.00047203,7.234e-05,0.0,0 STARLINK-4001,1 52628U 22052AG  24101.39483376  .00007234  00000-0  47203-3 0  9990,2 52628  53.2164 178.8869 0001342  95.6178 264.4967 15.08846410105369,6917.861,95.437,540.654,538.797,0.0
52628.0,STARLINK-4001,PAYLOAD,2024-04-10 22:11:38,15.08861976,0.0001445,53.2189,176.5081,75.9547,284.1606,0.00088258,0.00013795,0.0,0 STARLINK-4001,1 52628U 22052AG  24101.92474862  .00013795  00000-0  88258-3 0  9993,2 52628  53.2189 176.5081 0001445  75.9547 284.1606 15.08861976105444,6917.813,95.436,540.678,538.679,0.0
52628.0,STARLINK-4001,PAYLOAD,2024-04-11 04:33:11,15.08859049,0.0003546,53.214,175.3202,80.815,279.3243,0.00075589,0.00011769,0.0,0 STARLINK-4001,1 52628U 22052AG  24102.18971395  .00011769  00000-0  75589-3 0  9997,2 52628  53.2140 175.3202 0003546  80.8150 279.3243 15.08859049105869,6917.822,95.436,542.14,537.234,0.0
52628.0,STARLINK-4001,PAYLOAD,2024-04-11 12:30:06,15.08832648,0.0001522,53.2151,173.8325,80.8321,279.2843,-2.1817e-05,-6.35e-06,0.0,0 STARLINK-4001,1 52628U 22052AG  24102.52091404 -.00000635  00000-0 -21817-4 0  9997,2 52628  53.2151 173.8325 0001522  80.8321 279.2843 15.08832648105919,6917.903,95.438,540.821,538.715,0.0
52628.0,STARLINK-4001,PAYLOAD,2024-04-11 22:02:25,15.08841631,0.0001475,53.2153,172.048,79.9468,280.169,0.00039464,5.999e-05,0.0,0 STARLINK-4001,1 52628U 22052AG  24102.91835458  .00005999  00000-0  39464-3 0  9997,2 52628  53.2153 172.0480 0001475  79.9468 280.1690 15.08841631105599,6917.875,95.437,540.761,538.72,0.0
52628.0,STARLINK-4001,PAYLOAD,2024-04-12 10:45:31,15.08838015,0.0001607,53.2152,169.6699,77.0873,283.0298,0.0004792,7.346e-05,0.0,0 STARLINK-4001,1 52628U 22052AG  24103.44827967  .00007346  00000-0  47920-3 0  9996,2 52628  53.2152 169.6699 0001607  77.0873 283.0298 15.08838015105675,6917.886,95.438,540.863,538.64,0.0
52628.0,STARLINK-4001,PAYLOAD,2024-04-13 10:36:18,15.08840904,0.0001574,53.2158,165.208,81.0518,279.0652,0.00022396,3.278e-05,0.0,0 STARLINK-4001,1 52628U 22052AG  24104.44187984  .00003278  00000-0  22396-3 0  9995,2 52628  53.2158 165.2080 0001574  81.0518 279.0652 15.08840904106200,6917.878,95.437,540.831,538.654,0.0
52628.0,STARLINK-4001,PAYLOAD,2024-04-14 10:27:05,15.08843619,0.0001489,53.2157,160.7462,94.3084,265.8079,0.00014221,1.976e-05,0.0,0 STARLINK-4001,1 52628U 22052AG  24105.43547824  .00001976  00000-0  14221-3 0  9999,2 52628  53.2157 160.7462 0001489  94.3084 265.8079 15.08843619105978,6917.869,95.437,540.764,538.704,0.0
52628.0,STARLINK-4001,PAYLOAD,2024-04-15 03:56:19,15.08845485,0.0001499,53.2159,157.4745,91.211,268.9054,0.00019635,2.839e-05,0.0,0 STARLINK-4001,1 52628U 22052AG  24106.16411667  .00002839  00000-0  19635-3 0  9998,2 52628  53.2159 157.4745 0001499  91.2110 268.9054 15.08845485106469,6917.864,95.437,540.766,538.692,0.0
52628.0,STARLINK-4001,PAYLOAD,2024-04-15 10:17:52,15.08843923,0.0001475,53.2162,156.2851,89.452,270.6641,0.00013863,1.919e-05,0.0,0 STARLINK-4001,1 52628U 22052AG  24106.42907670  .00001919  00000-0  13863-3 0  9996,2 52628  53.2162 156.2851 0001475  89.4520 270.6641 15.08843923106126,6917.868,95.437,540.754,538.713,0.0
52628.0,STARLINK-4001,PAYLOAD,2024-04-15 19:50:10,15.08856407,0.0001533,53.2168,154.5053,106.6799,253.4362,0.00028313,4.223e-05,0.0,0 STARLINK-4001,1 52628U 22052AG  24106.82650808  .00004223  00000-0  28313-3 0  9995,2 52628  53.2168 154.5053 0001533 106.6799 253.4362 15.08856407106188,6917.83,95.437,540.756,538.635,0.0
52628.0,STARLINK-4001,PAYLOAD,2024-04-16 11:44:02,15.08840173,0.0001569,53.216,151.5322,106.7763,253.3402,2.1533e-05,5.5e-07,0.0,0 STARLINK-4001,1 52628U 22052AG  24107.48891588  .00000055  00000-0  21533-4 0  9997,2 52628  53.2160 151.5322 0001569 106.7763 253.3402 15.08840173106667,6917.88,95.438,540.83,538.659,0.0
52628.0,STARLINK-4001,PAYLOAD,2024-04-17 11:34:50,15.08827025,0.0001241,53.2153,147.0685,90.0338,270.0797,-0.00013702,-2.467e-05,0.0,0 STARLINK-4001,1 52628U 22052AG  24108.48252661 -.00002467  00000-0 -13702-3 0  9990,2 52628  53.2153 147.0685 0001241  90.0338 270.0797 15.08827025106812,6917.92,95.438,540.644,538.927,0.0
52628.0,STARLINK-4001,PAYLOAD,2024-04-18 01:53:19,15.0880674,0.0001186,53.2146,144.3913,96.0802,264.0325,0.0005515,8.492e-05,0.0,0 STARLINK-4001,1 52628U 22052AG  24109.07870255  .00008492  00000-0  55150-3 0  9996,2 52628  53.2146 144.3913 0001186  96.0802 264.0325 15.08806740106909,6917.982,95.44,540.668,539.027,0.0
52628.0,STARLINK-4001,PAYLOAD,2024-04-18 11:25:37,15.08834255,0.0001317,53.2165,142.6077,92.3933,267.721,0.00013065,1.792e-05,0.0,0 STARLINK-4001,1 52628U 22052AG  24109.47612996  .00001792  00000-0  13065-3 0  9991,2 52628  53.2165 142.6077 0001317  92.3933 267.7210 15.08834255106963,6917.898,95.438,540.674,538.852,0.0
52628.0,STARLINK-4001,PAYLOAD,2024-04-19 06:30:15,15.0883801,0.0001418,53.2168,139.0396,81.7546,278.3607,0.00022624,3.314e-05,0.0,0 STARLINK-4001,1 52628U 22052AG  24110.27100868  .00003314  00000-0  22624-3 0  9994,2 52628  53.2168 139.0396 0001418  81.7546 278.3607 15.08838010106707,6917.886,95.438,540.732,538.771,0.0
52628.0,STARLINK-4001,PAYLOAD,2024-04-20 11:07:11,15.08850065,0.000143,53.2164,133.6867,84.9824,275.1331,0.00015062,2.111e-05,0.0,0 STARLINK-4001,1 52628U 22052AG  24111.46332440  .00002111  00000-0  15062-3 0  9991,2 52628  53.2164 133.6867 0001430  84.9824 275.1331 15.08850065107269,6917.85,95.437,540.704,538.725,0.0
52628.0,STARLINK-4001,PAYLOAD,2024-04-21 04:36:26,15.08835152,0.0001838,53.216,130.4119,118.6778,241.4399,-0.00012502,-2.277e-05,0.0,0 STARLINK-4001,1 52628U 22052AG  24112.19197033 -.00002277  00000-0 -12502-3 0  9990,2 52628  53.2160 130.4119 0001838 118.6778 241.4399 15.08835152107377,6917.895,95.438,541.032,538.489,0.0
